ORBCOMM FM37            
1 33064U 08031E   24176.48390956  .00001425  00000+0  23081-3 0  9990
2 33064  48.4406 240.4242 0006719 284.8508 200.9983 14.76700347861443
ORBCOMM FM40            
1 33065U 08031F   24176.50941153  .00001843  00000+0  28088-3 0  9991
2 33065  48.4412 229.2323 0008081 293.9687 206.7626 14.78081997861611
VESSELSAT 1             
1 37840U 11058C   24176.11974708  .00000368  00000+0  56346-4 0  9998
2 37840  19.9617 100.2593 0013659 207.7082 152.2595 14.11167908655897
ORBCOMM FM109           
1 40086U 14040A   24176.15847022  .00000959  00000+0  24961-3 0  9993
2 40086  47.0040 265.5303 0001001 140.8141 219.2816 14.56761627528953
ORBCOMM FM107           
1 40087U 14040B   24175.64371540  .00001029  00000+0  26494-3 0  9996
2 40087  47.0059 268.9254 0000340  30.6442 329.4463 14.56771320528831
ORBCOMM FM106           
1 40088U 14040C   24175.86626949  .00001245  00000+0  25104-3 0  9994
2 40088  47.0607 117.7199 0017738 205.1530 154.8497 14.67209612530816
ORBCOMM FM111           
1 40089U 14040D   24175.99094112  .00001693  00000+0  23504-3 0  9999
2 40089  47.0064  12.8549 0033509 280.5859  79.1263 14.82079259537011
ORBCOMM FM104           
1 40090U 14040E   24176.41561333  .00000765  00000+0  21328-3 0  9994
2 40090  47.0063 294.7077 0016620   7.8074 352.3066 14.55247408528585
